{"epoch":1784902576,"count":18312,"objects":[{"id":"62815","name":"STARLINK-32845","type":"PAYLOAD","l1":"1 62815U 25018K   26205.17758235  .00067767  00000-0  20767-2 0  9998","l2":"2 62815  53.1609  35.0353 0001993 260.3011  99.7766 15.33188798 84078"},{"id":"62816","name":"STARLINK-32854","type":"PAYLOAD","l1":"1 62816U 25018L   26204.94821811  .00032369  00000-0  96401-3 0  9993","l2":"2 62816  53.1595  35.7416 0005941  68.9718 291.1920 15.34420142 84032"},{"id":"62817","name":"STARLINK-32824","type":"PAYLOAD","l1":"1 62817U 25018M   26203.97253944  .00031876  00000-0  10831-2 0  9996","l2":"2 62817  53.1600  41.0200 0001570 331.3632  28.7282 15.30219018 84834"},{"id":"62818","name":"STARLINK-32853","type":"PAYLOAD","l1":"1 62818U 25018N   26204.51110764  .00019650  00000-0  59098-3 0  9995","l2":"2 62818  53.1590  37.2756 0000856  43.5676 316.5394 15.34410574 83994"},{"id":"62819","name":"STARLINK-32856","type":"PAYLOAD","l1":"1 62819U 25018P   26205.10574030  .00027216  00000-0  81380-3 0  9998","l2":"2 62819  53.1590  34.5918 0001207  87.0668 273.0473 15.34395824 84086"},{"id":"62820","name":"STARLINK-32844","type":"PAYLOAD","l1":"1 62820U 25018Q   26204.56020413  .00026244  00000-0  85432-3 0  9992","l2":"2 62820  53.1579  37.5771 0001046  98.1603 261.9517 15.31706730 83980"},{"id":"62821","name":"STARLINK-32782","type":"PAYLOAD","l1":"1 62821U 25018R   26204.54055512  .00035992  00000-0  10711-2 0  9996","l2":"2 62821  53.1600  37.4597 0002466  94.9243 265.2041 15.34404409 83993"},{"id":"62822","name":"STARLINK-32842","type":"PAYLOAD","l1":"1 62822U 25018S   26204.56360771  .00026494  00000-0  79236-3 0  9990","l2":"2 62822  53.1602  36.8943 0001201  93.1832 266.9308 15.34405280 84000"},{"id":"62824","name":"STARLINK-32852","type":"PAYLOAD","l1":"1 62824U 25018U   26204.91333986  .00021122  00000-0  72309-3 0  9996","l2":"2 62824  53.1598  36.9366 0001666  95.6896 264.4295 15.30205696 84034"},{"id":"62825","name":"STARLINK-32825","type":"PAYLOAD","l1":"1 62825U 25018V   26205.25509718  .00020609  00000-0  70559-3 0  9997","l2":"2 62825  53.1599  32.6684 0000842  69.7280 290.3811 15.30219231 84117"},{"id":"62826","name":"STARLINK-32704","type":"PAYLOAD","l1":"1 62826U 25018W   26204.95632085  .00085285  00000-0  17056-2 0  9991","l2":"2 62826  53.1546  30.7912 0004369 163.9385 196.1762 15.46073472 84114"},{"id":"62828","name":"STARLINK-32727","type":"PAYLOAD","l1":"1 62828U 25018Y   26204.54209389  .00022722  00000-0  68164-3 0  9999","l2":"2 62828  53.1589  33.2092 0001478 317.6592  42.4296 15.34397414 84999"},{"id":"62829","name":"STARLINK-11548","type":"PAYLOAD","l1":"1 62829U 25019A   26205.07331927  .00101191  00000-0  78113-3 0  9997","l2":"2 62829  43.0005 203.6145 0001551 243.8437 116.2271 15.70882711 85334"},{"id":"62830","name":"STARLINK-11480","type":"PAYLOAD","l1":"1 62830U 25019B   26205.22168797  .00287789  00000-0  21407-2 0  9990","l2":"2 62830  42.9993 203.0160 0002053 243.9307 116.1349 15.71159033 85358"},{"id":"62831","name":"STARLINK-11559","type":"PAYLOAD","l1":"1 62831U 25019C   26205.06283040  .00217953  00000-0  16588-2 0  9992","l2":"2 62831  43.0001 204.4238 0002875 291.9743  68.0819 15.70825795 85329"},{"id":"62832","name":"STARLINK-11549","type":"PAYLOAD","l1":"1 62832U 25019D   26204.41106900  .00193159  00000-0  14706-2 0  9991","l2":"2 62832  43.0011 208.1289 0002193 263.8358  96.2259 15.70895413 85225"},{"id":"62833","name":"STARLINK-11554","type":"PAYLOAD","l1":"1 62833U 25019E   26205.05220686  .00229525  00000-0  17316-2 0  9998","l2":"2 62833  42.9860 204.3199 0002718 260.1097  99.9463 15.70998462 85323"},{"id":"62834","name":"STARLINK-11520","type":"PAYLOAD","l1":"1 62834U 25019F   26205.26937830  .00186990  00000-0  14187-2 0  9999","l2":"2 62834  42.9979 202.5062 0001615 126.6951 233.4065 15.70999881 85378"},{"id":"62835","name":"STARLINK-11546","type":"PAYLOAD","l1":"1 62835U 25019G   26204.30514144  .00245052  00000-0  18535-2 0  9999","l2":"2 62835  42.9994 209.0641 0000583 214.8366 145.2463 15.70890070 85208"},{"id":"62836","name":"STARLINK-11533","type":"PAYLOAD","l1":"1 62836U 25019H   26204.40045564  .00167157  00000-0  12790-2 0  9992","l2":"2 62836  42.9988 208.0436 0000788 293.0522  67.0262 15.70862180 85224"},{"id":"62837","name":"STARLINK-11557","type":"PAYLOAD","l1":"1 62837U 25019J   26204.06658480  .00124647  00000-0  96145-3 0  9996","l2":"2 62837  43.0017 209.8286 0002309 269.6119  90.4484 15.70812623 85171"},{"id":"62838","name":"STARLINK-11556","type":"PAYLOAD","l1":"1 62838U 25019K   26205.27028759  .00160431  00000-0  12269-2 0  9996","l2":"2 62838  43.0000 202.5118 0001804 267.6358  92.4303 15.70896268 85360"},{"id":"62839","name":"STARLINK-11524","type":"PAYLOAD","l1":"1 62839U 25019L   26205.05752143  .00175437  00000-0  13339-2 0  9995","l2":"2 62839  42.9999 204.3795 0003866 287.8147  72.2299 15.70980400 85325"},{"id":"62840","name":"STARLINK-11551","type":"PAYLOAD","l1":"1 62840U 25019M   26205.02566538  .00175182  00000-0  13329-2 0  9991","l2":"2 62840  42.9994 204.1226 0002200 281.8753  78.1868 15.70969066 85329"},{"id":"62841","name":"STARLINK-11531","type":"PAYLOAD","l1":"1 62841U 25019N   26205.04159007  .00138935  00000-0  10639-2 0  9999","l2":"2 62841  42.9984 204.2504 0001354 253.8358 106.2361 15.70937619 85328"},{"id":"62842","name":"STARLINK-32755","type":"PAYLOAD","l1":"1 62842U 25019P   26204.83276171  .00027073  00000-0  98953-3 0  9994","l2":"2 62842  43.0035  33.0765 0001654 264.3516  95.7147 15.27586219 83152"},{"id":"62843","name":"STARLINK-32797","type":"PAYLOAD","l1":"1 62843U 25019Q   26203.98690952 -.00000033  00000-0  83357-5 0  9999","l2":"2 62843  43.0033  44.8321 0001485 292.4121  67.6573 15.27553586 82943"},{"id":"62844","name":"STARLINK-32794","type":"PAYLOAD","l1":"1 62844U 25019R   26204.86263068  .00021718  00000-0  79641-3 0  9993","l2":"2 62844  43.0040  40.2211 0001376 255.7623 104.3076 15.27580732 83073"},{"id":"62845","name":"STARLINK-32807","type":"PAYLOAD","l1":"1 62845U 25019S   26204.86859168  .00015379  00000-0  56712-3 0  9996","l2":"2 62845  43.0006  32.4729 0001515 266.9959  93.0719 15.27585409 83168"},{"id":"62846","name":"STARLINK-32804","type":"PAYLOAD","l1":"1 62846U 25019T   26203.92922910  .00030360  00000-0  11080-2 0  9994","l2":"2 62846  43.0020  45.2601 0001508 273.7421  86.3258 15.27586227 82934"}]}