OBJECT_NAME,OBJECT_ID,EPOCH,MEAN_MOTION,ECCENTRICITY,INCLINATION,RA_OF_ASC_NODE,ARG_OF_PERICENTER,MEAN_ANOMALY,EPHEMERIS_TYPE,CLASSIFICATION_TYPE,NORAD_CAT_ID,ELEMENT_SET_NO,REV_AT_EPOCH,BSTAR,MEAN_MOTION_DOT,MEAN_MOTION_DDOT
STARLINK-32845,2025-018K,2026-07-24T04:15:43.115040,15.33188798,.00019935,53.1609,35.0353,260.3011,99.7766,0,U,62815,999,8407,.20766622E-2,.67767E-3,0
STARLINK-32854,2025-018L,2026-07-23T22:45:26.044704,15.34420142,.00059414,53.1595,35.7416,68.9718,291.1920,0,U,62816,999,8403,.9640067E-3,.32369E-3,0
STARLINK-32824,2025-018M,2026-07-22T23:20:27.407616,15.30219018,.00015695,53.1600,41.0200,331.3632,28.7282,0,U,62817,999,8483,.10831075E-2,.31876E-3,0
STARLINK-32853,2025-018N,2026-07-23T12:15:59.700096,15.34410574,.0000856,53.1590,37.2756,43.5676,316.5394,0,U,62818,999,8399,.59098E-3,.1965E-3,0
STARLINK-32856,2025-018P,2026-07-24T02:32:15.961920,15.34395824,.00012067,53.1590,34.5918,87.0668,273.0473,0,U,62819,999,8408,.8138045E-3,.27216E-3,0
STARLINK-32844,2025-018Q,2026-07-23T13:26:41.636832,15.31706730,.0001046,53.1579,37.5771,98.1603,261.9517,0,U,62820,999,8398,.85432E-3,.26244E-3,0
STARLINK-32782,2025-018R,2026-07-23T12:58:23.962368,15.34404409,.0002466,53.1600,37.4597,94.9243,265.2041,0,U,62821,999,8399,.10711E-2,.35992E-3,0
STARLINK-32842,2025-018S,2026-07-23T13:31:35.706144,15.34405280,.0001201,53.1602,36.8943,93.1832,266.9308,0,U,62822,999,8400,.79236E-3,.26494E-3,0
STARLINK-32852,2025-018U,2026-07-23T21:55:12.563904,15.30205696,.00016664,53.1598,36.9366,95.6896,264.4295,0,U,62824,999,8403,.72309482E-3,.21122E-3,0
STARLINK-32825,2025-018V,2026-07-24T06:07:20.396352,15.30219231,.00008418,53.1599,32.6684,69.7280,290.3811,0,U,62825,999,8411,.70558932E-3,.20609E-3,0
STARLINK-32704,2025-018W,2026-07-23T22:57:06.121440,15.46073472,.00043686,53.1546,30.7912,163.9385,196.1762,0,U,62826,999,8411,.17055826E-2,.85285E-3,0
STARLINK-32727,2025-018Y,2026-07-23T13:00:36.912096,15.34397414,.0001478,53.1589,33.2092,317.6592,42.4296,0,U,62828,999,8499,.68164E-3,.22722E-3,0
STARLINK-11548 [DTC],2025-019A,2026-07-24T01:45:34.784928,15.70882711,.00015511,43.0005,203.6145,243.8437,116.2271,0,U,62829,999,8533,.78112609E-3,.101191E-2,0
STARLINK-11480 [DTC],2025-019B,2026-07-24T05:19:13.840608,15.71159033,.00020532,42.9993,203.0160,243.9307,116.1349,0,U,62830,999,8535,.21406818E-2,.287789E-2,0
STARLINK-11559 [DTC],2025-019C,2026-07-24T01:30:28.546560,15.70825795,.00028748,43.0001,204.4238,291.9743,68.0819,0,U,62831,999,8532,.16587575E-2,.217953E-2,0
STARLINK-11549 [DTC],2025-019D,2026-07-23T09:51:56.361600,15.70895413,.0002193,43.0011,208.1289,263.8358,96.2259,0,U,62832,999,8522,.14706E-2,.193159E-2,0
STARLINK-11554 [DTC],2025-019E,2026-07-24T01:15:10.672704,15.70998462,.00027184,42.9860,204.3199,260.1097,99.9463,0,U,62833,999,8532,.17316162E-2,.229525E-2,0
STARLINK-11520 [DTC],2025-019F,2026-07-24T06:27:54.285120,15.70999881,.00016146,42.9979,202.5062,126.6951,233.4065,0,U,62834,999,8537,.14186539E-2,.18699E-2,0
STARLINK-11546 [DTC],2025-019G,2026-07-23T07:19:24.220416,15.70890070,.0000583,42.9994,209.0641,214.8366,145.2463,0,U,62835,999,8520,.18535E-2,.245052E-2,0
STARLINK-11533 [DTC],2025-019H,2026-07-23T09:36:39.367296,15.70862180,.0000788,42.9988,208.0436,293.0522,67.0262,0,U,62836,999,8522,.1279E-2,.167157E-2,0
STARLINK-11557 [DTC],2025-019J,2026-07-23T01:35:52.926720,15.70812623,.00023087,43.0017,209.8286,269.6119,90.4484,0,U,62837,999,8517,.96145392E-3,.124647E-2,0
STARLINK-11556 [DTC],2025-019K,2026-07-24T06:29:12.847776,15.70896268,.00018043,43.0000,202.5118,267.6358,92.4303,0,U,62838,999,8536,.12268726E-2,.160431E-2,0
STARLINK-11524 [DTC],2025-019L,2026-07-24T01:22:49.851552,15.70980400,.00038662,42.9999,204.3795,287.8147,72.2299,0,U,62839,999,8532,.13338631E-2,.175437E-2,0
STARLINK-11551 [DTC],2025-019M,2026-07-24T00:36:57.488832,15.70969066,.00022001,42.9994,204.1226,281.8753,78.1868,0,U,62840,999,8532,.13328727E-2,.175182E-2,0
STARLINK-11531 [DTC],2025-019N,2026-07-24T00:59:53.382048,15.70937619,.00013541,42.9984,204.2504,253.8358,106.2361,0,U,62841,999,8532,.10638757E-2,.138935E-2,0
STARLINK-32755,2025-019P,2026-07-23T19:59:10.611744,15.27586219,.00016537,43.0035,33.0765,264.3516,95.7147,0,U,62842,999,8315,.9895316E-3,.27073E-3,0
STARLINK-32797,2025-019Q,2026-07-22T23:41:08.982528,15.27553586,.00014849,43.0033,44.8321,292.4121,67.6573,0,U,62843,999,8294,.8335717E-5,-.33E-6,0
STARLINK-32794,2025-019R,2026-07-23T20:42:11.290752,15.27580732,.00013756,43.0040,40.2211,255.7623,104.3076,0,U,62844,999,8307,.7964079E-3,.21718E-3,0
STARLINK-32807,2025-019S,2026-07-23T20:50:46.321152,15.27585409,.00015148,43.0006,32.4729,266.9959,93.0719,0,U,62845,999,8316,.56712219E-3,.15379E-3,0
STARLINK-32804,2025-019T,2026-07-22T22:18:05.394240,15.27586227,.00015082,43.0020,45.2601,273.7421,86.3258,0,U,62846,999,8293,.11080224E-2,.3036E-3,0
